FENGYUN 1C DEB          
1 38491U 99025ESA 17345.85920638  .00000223  00000-0  16392-3 0  9992
2 38491  99.1760  14.8416 0235288  97.8615 264.9321 13.92660083383646
